GLOBALSTAR M048 [-]     
1 25872U 99041A   17345.56744785 -.00000061  00000-0  23704-3 0  9990
2 25872  51.9390  10.5423 0013405 112.6943  53.9949 11.33811596813882
